NORAD_CAT_ID,OBJECT_NAME,OBJECT_TYPE,EPOCH,MEAN_MOTION,ECCENTRICITY,INCLINATION,RA_OF_ASC_NODE,ARG_OF_PERICENTER,MEAN_ANOMALY,BSTAR,MEAN_MOTION_DOT,MEAN_MOTION_DDOT,TLE_LINE0,TLE_LINE1,TLE_LINE2,SEMIMAJOR_AXIS,PERIOD,APOGEE,PERIGEE,DECAYED
53427.0,STARLINK-4541,PAYLOAD,2022-10-23 08:00:01,15.08854959,0.000185,53.2195,250.8585,42.7198,292.8042,0.0015550999999999,0.00024558,0.0,0 STARLINK-4541,1 53427U 22097AR  22296.33335648  .00024558  00000-0  15551-2 0  9990,2 53427  53.2195 250.8585 0001850  42.7198 292.8042 15.08854959 11975,6917.835,95.437,540.979,538.42,0.0
53427.0,STARLINK-4541,PAYLOAD,2022-10-23 14:00:01,15.08861351,0.0001742,53.2197,249.7349,44.1417,210.0325,-0.0015126,-0.00024295,0.0,0 STARLINK-4541,1 53427U 22097AR  22296.58334491 -.00024295  00000-0 -15126-2 0  9990,2 53427  53.2197 249.7349 0001742  44.1417 210.0325 15.08861351  1308,6917.815,95.436,540.885,538.475,0.0
53427.0,STARLINK-4541,PAYLOAD,2022-10-23 22:00:00,15.08873712,0.000172,53.2199,248.2382,49.5975,216.1778,-0.0028664,-0.0004566,0.0,0 STARLINK-4541,1 53427U 22097AR  22296.91667824 -.00045660  00000-0 -28664-2 0  9996,2 53427  53.2199 248.2382 0001720  49.5975 216.1778 15.08873712  1308,6917.776999999999,95.435,540.832,538.452,0.0
53427.0,STARLINK-4541,PAYLOAD,2022-10-24 14:00:01,15.08773014,0.0001719,53.2204,245.2459,41.6014,247.3619,0.0020553,0.00032513,0.0,0 STARLINK-4541,1 53427U 22097AR  22297.58334491  .00032513  00000-0  20553-2 0  9991,2 53427  53.2204 245.2459 0001719  41.6014 247.3619 15.08773014  1306,6918.085,95.442,541.139,538.761,0.0
53427.0,STARLINK-4541,PAYLOAD,2022-10-24 22:00:00,15.08823997,0.0001749,53.2206,243.7495,47.8237,252.657,0.00032302,4.854e-05,0.0,0 STARLINK-4541,1 53427U 22097AR  22297.91667824  .00004854  00000-0  32302-3 0  9990,2 53427  53.2206 243.7495 0001749  47.8237 252.6570 15.08823997  1300,6917.929,95.439,541.004,538.5840000000002,0.0
53427.0,STARLINK-4541,PAYLOAD,2022-10-25 00:00:00,15.0883445,0.000181,53.2207,243.376,45.9586,347.4132,-0.0011252,-0.00018148,0.0,0 STARLINK-4541,1 53427U 22097AR  22298.00001157 -.00018148  00000-0 -11252-2 0  9995,2 53427  53.2207 243.3760 0001810  45.9586 347.4132 15.08834450 12223,6917.897,95.438,541.014,538.51,0.0
53427.0,STARLINK-4541,PAYLOAD,2022-10-25 14:00:01,15.08841332,0.0001829,53.221,240.7573,45.6972,277.9397,-0.00043772,-7.248e-05,0.0,0 STARLINK-4541,1 53427U 22097AR  22298.58334491 -.00007248  00000-0 -43772-3 0  9990,2 53427  53.2210 240.7573 0001829  45.6972 277.9397 15.08841332  1300,6917.876,95.437,541.007,538.476,0.0
53427.0,STARLINK-4541,PAYLOAD,2022-10-25 22:00:01,15.08855332,0.0001875999999999,53.2213,239.2609,50.4539,284.8356,-0.0022693,-0.00036238,0.0,0 STARLINK-4541,1 53427U 22097AR  22298.91668981 -.00036238  00000-0 -22693-2 0  9990,2 53427  53.2213 239.2609 0001876  50.4539 284.8356 15.08855332  1308,6917.834,95.437,540.996,538.401,0.0
53427.0,STARLINK-4541,PAYLOAD,2022-10-26 14:00:01,15.08837585,0.0001933,53.2213,236.2687,50.2636,308.1463,0.00045181,6.909e-05,0.0,0 STARLINK-4541,1 53427U 22097AR  22299.58334491  .00006909  00000-0  45181-3 0  9998,2 53427  53.2213 236.2687 0001933  50.2636 308.1463 15.08837585  1300,6917.888000000001,95.438,541.09,538.4159999999998,0.0
53427.0,STARLINK-4541,PAYLOAD,2022-10-26 22:00:00,15.08874312,0.0001899999999999,53.2215,234.7727,52.2977,317.7024,-0.0021517,-0.00034402,0.0,0 STARLINK-4541,1 53427U 22097AR  22299.91667824 -.00034402  00000-0 -21517-2 0  9991,2 53427  53.2215 234.7727 0001900  52.2977 317.7024 15.08874312  1302,6917.776,95.435,540.955,538.326,0.0
53427.0,STARLINK-4541,PAYLOAD,2022-10-27 14:00:01,15.08849059,0.0001809,53.2211,231.7801,49.9677,343.3281,0.00044731,6.840000000000001e-05,0.0,0 STARLINK-4541,1 53427U 22097AR  22300.58335648  .00006840  00000-0  44731-3 0  9990,2 53427  53.2211 231.7801 0001809  49.9677 343.3281 15.08849059 12612,6917.853,95.437,540.969,538.466,0.0
53427.0,STARLINK-4541,PAYLOAD,2022-10-27 22:00:00,15.08867901,0.0001774999999999,53.2211,230.2844,51.2575,353.5819,-0.0021739,-0.00034746,0.0,0 STARLINK-4541,1 53427U 22097AR  22300.91667824 -.00034746  00000-0 -21739-2 0  9991,2 53427  53.2211 230.2844 0001775  51.2575 353.5819 15.08867901  1308,6917.795,95.436,540.888,538.432,0.0
53427.0,STARLINK-4541,PAYLOAD,2022-10-28 14:00:01,15.08827525,0.0001669,53.2205,227.2916,48.7148,19.4236,0.0016805,0.00026549,0.0,0 STARLINK-4541,1 53427U 22097AR  22301.58335648  .00026549  00000-0  16805-2 0  9999,2 53427  53.2205 227.2916 0001669  48.7148  19.4236 15.08827525  1305,6917.919,95.438,540.938,538.629,0.0
53427.0,STARLINK-4541,PAYLOAD,2022-10-28 22:00:01,15.08862109,0.0001766,53.2203,225.7961,51.352,28.373,-0.0031366999999999,-0.00049894,0.0,0 STARLINK-4541,1 53427U 22097AR  22301.91668981 -.00049894  00000-0 -31367-2 0  9995,2 53427  53.2203 225.7961 0001766  51.3520  28.3730 15.08862109  1303,6917.813,95.436,540.899,538.456,0.0
53427.0,STARLINK-4541,PAYLOAD,2022-10-29 12:00:00,15.08852441,0.0001749,53.2196,223.1779,49.4645,320.4806,-0.0036604999999999,-0.00058096,0.0,0 STARLINK-4541,1 53427U 22097AR  22302.50001157 -.00058096  00000-0 -36605-2 0  9991,2 53427  53.2196 223.1779 0001749  49.4645 320.4806 15.08852441  1308,6917.842,95.437,540.9169999999998,538.497,0.0
53427.0,STARLINK-4541,PAYLOAD,2022-10-29 22:00:01,15.08861738,0.000174,53.2195,221.3076,50.2239,64.3046,-0.00043257,-7.170000000000001e-05,0.0,0 STARLINK-4541,1 53427U 22097AR  22302.91668981 -.00007170  00000-0 -43257-3 0  9999,2 53427  53.2195 221.3076 0001740  50.2239  64.3046 15.08861738  1306,6917.814,95.436,540.883,538.475,0.0
53427.0,STARLINK-4541,PAYLOAD,2022-10-30 00:00:00,15.08864043,0.0001789,53.2194,220.9341,48.347,159.0228,-0.0010134,-0.00016391,0.0,0 STARLINK-4541,1 53427U 22097AR  22303.00001157 -.00016391  00000-0 -10134-2 0  9998,2 53427  53.2194 220.9341 0001789  48.3470 159.0228 15.08864043 12974,6917.807,95.436,540.909,538.434,0.0
53427.0,STARLINK-4541,PAYLOAD,2022-10-30 14:00:01,15.08823521,0.0001564,53.2191,218.3145,44.5389,93.1222,0.00073254,0.00011384,0.0,0 STARLINK-4541,1 53427U 22097AR  22303.58334491  .00011384  00000-0  73254-3 0  9999,2 53427  53.2191 218.3145 0001564  44.5389  93.1222 15.08823521  1305,6917.931,95.439,540.878,538.714,0.0
53427.0,STARLINK-4541,PAYLOAD,2022-10-30 22:00:01,15.08847483,0.0001666999999999,53.2192,216.8189,45.3781,103.9214,-0.00038161,-6.358e-05,0.0,0 STARLINK-4541,1 53427U 22097AR  22303.91668981 -.00006358  00000-0 -38161-3 0  9995,2 53427  53.2192 216.8189 0001667  45.3781 103.9214 15.08847483  1300,6917.858,95.437,540.876,538.569,0.0
53427.0,STARLINK-4541,PAYLOAD,2022-10-31 14:00:01,15.08828328,0.0001699999999999,53.2192,213.8256,46.8588,125.5841,0.00091651,0.00014324,0.0,0 STARLINK-4541,1 53427U 22097AR  22304.58334491  .00014324  00000-0  91651-3 0  9998,2 53427  53.2192 213.8256 0001700  46.8588 125.5841 15.08828328  1304,6917.916,95.438,540.957,538.605,0.0
53427.0,STARLINK-4541,PAYLOAD,2022-10-31 22:00:01,15.08847973,0.000175,53.2194,212.3301,45.3773,138.7146,-0.002706,-0.00043106,0.0,0 STARLINK-4541,1 53427U 22097AR  22304.91668981 -.00043106  00000-0 -27060-2 0  9993,2 53427  53.2194 212.3301 0001750  45.3773 138.7146 15.08847973  1307,6917.856,95.437,540.932,538.51,0.0
53427.0,STARLINK-4541,PAYLOAD,2022-11-01 00:00:02,15.08840182,0.0001792,53.2193,211.9565,42.7929,234.1981,-0.0024381999999999,-0.00038884,0.0,0 STARLINK-4541,1 53427U 22097AR  22305.00002315 -.00038884  00000-0 -24382-2 0  9998,2 53427  53.2193 211.9565 0001792  42.7929 234.1981 15.08840182 13275,6917.88,95.438,540.985,538.505,0.0
53427.0,STARLINK-4541,PAYLOAD,2022-11-01 14:00:01,15.0881958,0.0001684,53.2197,209.3366,44.2067,162.9916,0.0018867,0.0002985,0.0,0 STARLINK-4541,1 53427U 22097AR  22305.58334491  .00029850  00000-0  18867-2 0  9996,2 53427  53.2197 209.3366 0001684  44.2067 162.9916 15.08819580  1304,6917.943,95.439,540.9730000000002,538.643,0.0
53427.0,STARLINK-4541,PAYLOAD,2022-11-01 22:00:00,15.08844646,0.0001844,53.2199,207.8414,45.5609,173.2223,-0.0017762,-0.00028449,0.0,0 STARLINK-4541,1 53427U 22097AR  22305.91667824 -.00028449  00000-0 -17762-2 0  9990,2 53427  53.2199 207.8414 0001844  45.5609 173.2223 15.08844646  1304,6917.866,95.437,541.007,538.456,0.0
53427.0,STARLINK-4541,PAYLOAD,2022-11-02 06:00:00,15.08829906,0.0001929,53.2199,206.3458,42.2601,188.1114,-0.0016564,-0.00026546,0.0,0 STARLINK-4541,1 53427U 22097AR  22306.25001157 -.00026546  00000-0 -16564-2 0  9994,2 53427  53.2199 206.3458 0001929  42.2601 188.1114 15.08829906 13462,6917.911,95.438,541.111,538.442,0.0
53427.0,STARLINK-4541,PAYLOAD,2022-11-02 14:00:01,15.08777326,0.000176,53.2197,204.8482,49.0677,192.8852,0.0039837,0.00063576,0.0,0 STARLINK-4541,1 53427U 22097AR  22306.58334491  .00063576  00000-0  39837-2 0  9990,2 53427  53.2197 204.8482 0001760  49.0677 192.8852 15.08777326  1300,6918.071999999999,95.442,541.155,538.719,0.0
53427.0,STARLINK-4541,PAYLOAD,2022-11-02 18:00:02,15.08809711,0.0001763,53.2193,204.1004,51.8912,15.888,0.00202,0.0003198,0.0,0 STARLINK-4541,1 53427U 22097AR  22306.75002315  .00031980  00000-0  20200-2 0  9994,2 53427  53.2193 204.1004 0001763  51.8912  15.8880 15.08809711 13543,6917.973000000001,95.439,541.058,538.618,0.0
53427.0,STARLINK-4541,PAYLOAD,2022-11-03 03:14:25,15.08821109,0.0001928,53.2205,202.3723,46.5272,313.5881,-3.3792e-06,-3.42e-06,0.0,0 STARLINK-4541,1 53427U 22097AR  22307.13502161 -.00000342  00000-0 -33792-5 0  9994,2 53427  53.2205 202.3723 0001928  46.5272 313.5881 15.08821109 13609,6917.938,95.439,541.137,538.469,0.0
53427.0,STARLINK-4541,PAYLOAD,2022-11-03 09:35:57,15.088317800000002,0.0001859,53.2216,201.1825,50.5912,309.5244,6.5345e-05,7.52e-06,0.0,0 STARLINK-4541,1 53427U 22097AR  22307.39997500  .00000752  00000-0  65345-4 0  9998,2 53427  53.2216 201.1825 0001859  50.5912 309.5244 15.08831780 13648,6917.906,95.438,541.057,538.484,0.0
